format  = 'OEF2.0'       ! file format
rectype = 'ML'           ! record type (1L/ML)
refsys  = ECLM J2000     ! default reference system
END_OF_HEADER
00433
! Cartesian position and velocity vectors
CAR  -1.05466884862748E+00 -2.08553110095708E-01 -7.83269055046801E-02  2.35613731965965E-03 -1.61665058012726E-02 -9.00988810869367E-04
MJD     58583.544731804 TDT
MAG  11.619  0.150
! Non-grav parameters: model used, actual number in use, dimension
LSP   0  0    6
! RMS    6.65025E-03   7.93774E-03   4.57094E-03   1.92616E-04   4.16924E-06   5.31498E-05
! EIG   6.40371E-08   6.40836E-08   2.51817E-07   2.58071E-07   1.43422E-06   1.13211E-02
! WEA  -0.58742   0.70115  -0.40375  -0.01701   0.00036  -0.00469
COV   4.422589143819415E-05 -5.278798057917714E-05  3.039788475648609E-05
COV   1.280936899930298E-06 -2.695021024829775E-08  3.534394386470642E-07
COV   6.300768213148243E-05 -3.628288551212653E-05 -1.528924656060050E-06
COV   3.216730290469094E-08 -4.218647128844947E-07  2.089344890637340E-05
COV   8.804292077140322E-07 -1.852359588722381E-08  2.429302616016768E-07
COV   3.710110838012886E-08 -7.813786243800486E-10  1.023731048993327E-08
COV   1.738259152043604E-11 -2.159288831434386E-10  2.824899125201115E-09
NOR   9.930197816231781E+12  6.211917950060643E+12 -3.561001393336538E+12
NOR  -1.986981090060307E+12  1.054441824541905E+12 -1.235630850845932E+12
NOR   7.664791942089218E+12  4.237984703046170E+12  1.031638600156159E+12
NOR   3.427362932785551E+12 -4.911367622751023E+11  1.257906641458467E+13
NOR  -1.225154375346266E+12 -4.860977127195516E+11  1.081795033621317E+12
NOR   1.583452704957961E+14  1.002538144110279E+14 -5.814916617796123E+13
NOR   1.259625220101552E+14  6.802349740876507E+13  2.041513469098460E+14
!MOID  0.03045    0
!NODES  0.06344  0.03381
00433
! Keplerian elements: a, e, i, long. node, arg. peric., mean anomaly
KEP   1.0518950509842608E+00 0.059637570752673   5.0996642117781 316.4604616449859 117.2287105470089 111.4223573667414
MJD     58583.544731804 TDT
MAG  11.619  0.150
! Non-grav parameters: model used, actual number in use, dimension
LSP   0  0    6
! RMS    6.57531E-03   2.71491E-03   2.78239E-01   3.92846E-01   2.34594E+00   2.83705E+00
! EIG   1.26499E-07   2.74750E-07   5.81928E-06   3.88285E-05   6.11284E-04   6.51850E-02
! WEA   0.10085   0.04154   0.07443  -0.10518   0.62809  -0.75961
COV   4.323466877309136E-05  1.782572006777294E-05  1.828989341236509E-03
COV  -2.582050774354756E-03  1.541893816503565E-02 -1.865309541088217E-02
COV   7.370717718293748E-06  7.550558919925613E-04 -1.063003630293757E-03
COV   6.347492649407848E-03 -7.685732043886219E-03  7.741683722239695E-02
COV  -1.091584213080733E-01  6.518349650457860E-01 -7.888699881531285E-01
COV   1.543279268198255E-01 -9.215795437540676E-01  1.114365950929711E+00
COV   5.503430301076168E+00 -6.654623811464283E+00  8.048838372606115E+00
NOR   1.239396958489885E+13  1.655874391296511E+13 -4.601057892463535E+10
NOR   1.089033788049403E+11  1.064999597385158E+11  1.129994801291898E+11
NOR   3.381709247723620E+13  1.183294146777802E+11  2.499142986038953E+11
NOR   2.583885337871840E+11  2.612936019468364E+11  2.967240748715760E+09
NOR   1.209611949796431E+09  1.399254063722176E+09  1.286587478897153E+09
NOR   1.891712511149285E+09  1.975016200969591E+09  1.980573481859217E+09
NOR   2.070661358232556E+09  2.069226549584192E+09  2.074064950453745E+09